{
  "type": "FeatureCollection",
  "features": [
    {
      "type": "Feature",
      "properties": {
        "norad_id": 34420,
        "name": "COSMOS 2251 DEB",
        "group": "cosmos-2251-debris",
        "lat": -13.255213644808986,
        "lon": 100.90075597749446,
        "alt_km": 708.0577530427272,
        "timestamp": "2025-12-12T07:43:20.910001+00:00",
        "meta_object_name": "COSMOS 2251 DEB",
        "meta_object_id": "1993-036RM",
        "meta_epoch": "2025-12-11T19:25:06.513888",
        "meta_mean_motion": 14.68293392,
        "meta_eccentricity": 0.01066806,
        "meta_inclination": 74.0335,
        "meta_ra_of_asc_node": 105.7591,
        "meta_arg_of_pericenter": 227.1205,
        "meta_mean_anomaly": 289.3763,
        "meta_ephemeris_type": 0,
        "meta_classification_type": "U",
        "meta_norad_cat_id": 34420,
        "meta_element_set_no": 999,
        "meta_rev_at_epoch": 89756,
        "meta_bstar": 0.00040415036,
        "meta_mean_motion_dot": 2.507e-05,
        "meta_mean_motion_ddot": 0,
        "tle_line1": "1 34420U 93036RM  25345.80910317  .00002507  00000+0  40415-3 0  9992",
        "tle_line2": "2 34420  74.0335 105.7591 0106680 227.1205 289.3763 14.68293392897565"
      },
      "geometry": {
        "type": "Point",
        "coordinates": [
          100.90075597749446,
          -13.255213644808986
        ]
      }
    },
    {
      "type": "Feature",
      "properties": {
        "norad_id": 34425,
        "name": "COSMOS 2251 DEB",
        "group": "cosmos-2251-debris",
        "lat": 71.99963745508975,
        "lon": 117.19143757043902,
        "alt_km": 682.1345245467764,
        "timestamp": "2025-12-12T07:43:20.910012+00:00",
        "meta_object_name": "COSMOS 2251 DEB",
        "meta_object_id": "1993-036RS",
        "meta_epoch": "2025-12-11T14:55:40.822464",
        "meta_mean_motion": 14.62119069,
        "meta_eccentricity": 0.00249107,
        "meta_inclination": 74.0201,
        "meta_ra_of_asc_node": 56.6586,
        "meta_arg_of_pericenter": 183.4495,
        "meta_mean_anomaly": 176.6504,
        "meta_ephemeris_type": 0,
        "meta_classification_type": "U",
        "meta_norad_cat_id": 34425,
        "meta_element_set_no": 999,
        "meta_rev_at_epoch": 88724,
        "meta_bstar": 0.0009325549,
        "meta_mean_motion_dot": 4.682e-05,
        "meta_mean_motion_ddot": 0,
        "tle_line1": "1 34425U 93036RS  25345.62200026  .00004682  00000+0  93255-3 0  9992",
        "tle_line2": "2 34425  74.0201  56.6586 0024910 183.4495 176.6504 14.62119069887247"
      },
      "geometry": {
        "type": "Point",
        "coordinates": [
          117.19143757043902,
          71.99963745508975
        ]
      }
    },
    {
      "type": "Feature",
      "properties": {
        "norad_id": 34429,
        "name": "COSMOS 2251 DEB",
        "group": "cosmos-2251-debris",
        "lat": 17.877450755607487,
        "lon": 174.24339721570524,
        "alt_km": 437.3784212887558,
        "timestamp": "2025-12-12T07:43:20.910022+00:00",
        "meta_object_name": "COSMOS 2251 DEB",
        "meta_object_id": "1993-036RW",
        "meta_epoch": "2025-12-11T22:49:36.140736",
        "meta_mean_motion": 15.41156412,
        "meta_eccentricity": 0.00072851,
        "meta_inclination": 73.9701,
        "meta_ra_of_asc_node": 169.7275,
        "meta_arg_of_pericenter": 11.6809,
        "meta_mean_anomaly": 111.3693,
        "meta_ephemeris_type": 0,
        "meta_classification_type": "U",
        "meta_norad_cat_id": 34429,
        "meta_element_set_no": 999,
        "meta_rev_at_epoch": 89436,
        "meta_bstar": 0.0055961645,
        "meta_mean_motion_dot": 0.00239612,
        "meta_mean_motion_ddot": 0,
        "tle_line1": "1 34429U 93036RW  25345.95111274  .00239612  00000+0  55962-2 0  9993",
        "tle_line2": "2 34429  73.9701 169.7275 0007285  11.6809 111.3693 15.41156412894369"
      },
      "geometry": {
        "type": "Point",
        "coordinates": [
          174.24339721570524,
          17.877450755607487
        ]
      }
    },
    {
      "type": "Feature",
      "properties": {
        "norad_id": 34430,
        "name": "COSMOS 2251 DEB",
        "group": "cosmos-2251-debris",
        "lat": -69.30419977502692,
        "lon": 173.32480616179726,
        "alt_km": 786.1471162839207,
        "timestamp": "2025-12-12T07:43:20.910033+00:00",
        "meta_object_name": "COSMOS 2251 DEB",
        "meta_object_id": "1993-036RX",
        "meta_epoch": "2025-12-11T23:51:39.783744",
        "meta_mean_motion": 14.39628936,
        "meta_eccentricity": 0.00603031,
        "meta_inclination": 74.0523,
        "meta_ra_of_asc_node": 304.7377,
        "meta_arg_of_pericenter": 14.553,
        "meta_mean_anomaly": 345.7343,
        "meta_ephemeris_type": 0,
        "meta_classification_type": "U",
        "meta_norad_cat_id": 34430,
        "meta_element_set_no": 999,
        "meta_rev_at_epoch": 87944,
        "meta_bstar": 0.00082628432,
        "meta_mean_motion_dot": 2.613e-05,
        "meta_mean_motion_ddot": 0,
        "tle_line1": "1 34430U 93036RX  25345.99421046  .00002613  00000+0  82628-3 0  9999",
        "tle_line2": "2 34430  74.0523 304.7377 0060303  14.5530 345.7343 14.39628936879440"
      },
      "geometry": {
        "type": "Point",
        "coordinates": [
          173.32480616179726,
          -69.30419977502692
        ]
      }
    },
    {
      "type": "Feature",
      "properties": {
        "norad_id": 34431,
        "name": "COSMOS 2251 DEB",
        "group": "cosmos-2251-debris",
        "lat": 4.181911272841614,
        "lon": -5.239685555963532,
        "alt_km": 750.2684123280551,
        "timestamp": "2025-12-12T07:43:20.910044+00:00",
        "meta_object_name": "COSMOS 2251 DEB",
        "meta_object_id": "1993-036RY",
        "meta_epoch": "2025-12-11T22:30:12.236832",
        "meta_mean_motion": 14.28769376,
        "meta_eccentricity": 0.00682951,
        "meta_inclination": 74.0747,
        "meta_ra_of_asc_node": 176.6516,
        "meta_arg_of_pericenter": 162.5707,
        "meta_mean_anomaly": 197.781,
        "meta_ephemeris_type": 0,
        "meta_classification_type": "U",
        "meta_norad_cat_id": 34431,
        "meta_element_set_no": 999,
        "meta_rev_at_epoch": 87131,
        "meta_bstar": 0.00096958465,
        "meta_mean_motion_dot": 2.479e-05,
        "meta_mean_motion_ddot": 0,
        "tle_line1": "1 34431U 93036RY  25345.93764163  .00002479  00000+0  96958-3 0  9995",
        "tle_line2": "2 34431  74.0747 176.6516 0068295 162.5707 197.7810 14.28769376871312"
      },
      "geometry": {
        "type": "Point",
        "coordinates": [
          -5.239685555963532,
          4.181911272841614
        ]
      }
    },
    {
      "type": "Feature",
      "properties": {
        "norad_id": 34432,
        "name": "COSMOS 2251 DEB",
        "group": "cosmos-2251-debris",
        "lat": -39.5065538186824,
        "lon": -63.09604232913216,
        "alt_km": 781.2094469539898,
        "timestamp": "2025-12-12T07:43:20.910054+00:00",
        "meta_object_name": "COSMOS 2251 DEB",
        "meta_object_id": "1993-036RZ",
        "meta_epoch": "2025-12-11T10:27:02.840256",
        "meta_mean_motion": 14.02899719,
        "meta_eccentricity": 0.01826275,
        "meta_inclination": 73.8286,
        "meta_ra_of_asc_node": 104.6225,
        "meta_arg_of_pericenter": 187.494,
        "meta_mean_anomaly": 238.0952,
        "meta_ephemeris_type": 0,
        "meta_classification_type": "U",
        "meta_norad_cat_id": 34432,
        "meta_element_set_no": 999,
        "meta_rev_at_epoch": 85666,
        "meta_bstar": 0.0022175295,
        "meta_mean_motion_dot": 3.958e-05,
        "meta_mean_motion_ddot": 0,
        "tle_line1": "1 34432U 93036RZ  25345.43544954  .00003958  00000+0  22175-2 0  9997",
        "tle_line2": "2 34432  73.8286 104.6225 0182627 187.4940 238.0952 14.02899719856661"
      },
      "geometry": {
        "type": "Point",
        "coordinates": [
          -63.09604232913216,
          -39.5065538186824
        ]
      }
    },
    {
      "type": "Feature",
      "properties": {
        "norad_id": 34433,
        "name": "COSMOS 2251 DEB",
        "group": "cosmos-2251-debris",
        "lat": -45.4954588184266,
        "lon": -7.3585335663765665,
        "alt_km": 809.8948443200889,
        "timestamp": "2025-12-12T07:43:20.910065+00:00",
        "meta_object_name": "COSMOS 2251 DEB",
        "meta_object_id": "1993-036SA",
        "meta_epoch": "2025-12-11T22:08:09.146976",
        "meta_mean_motion": 14.12847566,
        "meta_eccentricity": 0.01522029,
        "meta_inclination": 74.0121,
        "meta_ra_of_asc_node": 156.3888,
        "meta_arg_of_pericenter": 294.6279,
        "meta_mean_anomaly": 63.9071,
        "meta_ephemeris_type": 0,
        "meta_classification_type": "U",
        "meta_norad_cat_id": 34433,
        "meta_element_set_no": 999,
        "meta_rev_at_epoch": 85938,
        "meta_bstar": 0.0017616038,
        "meta_mean_motion_dot": 3.632e-05,
        "meta_mean_motion_ddot": 0,
        "tle_line1": "1 34433U 93036SA  25345.92232809  .00003632  00000+0  17616-2 0  9998",
        "tle_line2": "2 34433  74.0121 156.3888 0152202 294.6279  63.9071 14.12847566859387"
      },
      "geometry": {
        "type": "Point",
        "coordinates": [
          -7.3585335663765665,
          -45.4954588184266
        ]
      }
    }
  ]
}